{"type": "FeatureCollection", "features": [ {"type": "Feature", "properties": {"norad_id": 35045, "name": "COSMOS 2251 DEB", "group": "cosmos-2251-debris", "lat": 12.492440755380661, "lon": -149.98182942879373, "alt_km": 930.9375437109502, "timestamp": "2025-12-23T11:34:48.556330+00:00", "meta": {"OBJECT_NAME": "COSMOS 2251 DEB", "OBJECT_ID": "1993-036AHJ", "EPOCH": "2025-12-22T19:20:11.323968", "MEAN_MOTION": 14.00407667, "ECCENTRICITY": 0.01839618, "INCLINATION": 73.7191, "RA_OF_ASC_NODE": 34.9254, "ARG_OF_PERICENTER": 275.5727, "MEAN_ANOMALY": 82.445, "EPHEMERIS_TYPE": 0, "CLASSIFICATION_TYPE": "U", "NORAD_CAT_ID": 35045, "ELEMENT_SET_NO": 999, "REV_AT_EPOCH": 84784, "BSTAR": 0.00060913672, "MEAN_MOTION_DOT": 1.018e-05, "MEAN_MOTION_DDOT": 0}, "tle": {"line1": "1 35045U 93036AHJ 25356.80568662  .00001018  00000+0  60914-3 0  9992", "line2": "2 35045  73.7191  34.9254 0183961 275.5727  82.4450 14.00407667847846"}}, "geometry": {"type": "Point", "coordinates": [-149.98182942879373, 12.492440755380661]}}, {"type": "Feature", "properties": {"norad_id": 35060, "name": "COSMOS 2251 DEB", "group": "cosmos-2251-debris", "lat": -45.29069734353583, "lon": 61.24049924919653, "alt_km": 757.4887594944303, "timestamp": "2025-12-23T11:34:48.556339+00:00", "meta": {"OBJECT_NAME": "COSMOS 2251 DEB", "OBJECT_ID": "1993-036AHP", "EPOCH": "2025-12-17T09:37:48.798336", "MEAN_MOTION": 14.41611034, "ECCENTRICITY": 0.00186104, "INCLINATION": 74.0362, "RA_OF_ASC_NODE": 235.6937, "ARG_OF_PERICENTER": 321.6138, "MEAN_ANOMALY": 38.3692, "EPHEMERIS_TYPE": 0, "CLASSIFICATION_TYPE": "U", "NORAD_CAT_ID": 35060, "ELEMENT_SET_NO": 999, "REV_AT_EPOCH": 87309, "BSTAR": 0.00026105938, "MEAN_MOTION_DOT": 8.25e-06, "MEAN_MOTION_DDOT": 0}, "tle": {"line1": "1 35060U 93036AHP 25351.40125924  .00000825  00000+0  26106-3 0  9990", "line2": "2 35060  74.0362 235.6937 0018610 321.6138  38.3692 14.41611034873096"}}, "geometry": {"type": "Point", "coordinates": [61.24049924919653, -45.29069734353583]}}, {"type": "Feature", "properties": {"norad_id": 35061, "name": "COSMOS 2251 DEB", "group": "cosmos-2251-debris", "lat": 44.26778925192855, "lon": -58.83196602494843, "alt_km": 636.5435004023366, "timestamp": "2025-12-23T11:34:48.556347+00:00", "meta": {"OBJECT_NAME": "COSMOS 2251 DEB", "OBJECT_ID": "1993-036AHQ", "EPOCH": "2025-12-22T19:00:50.101056", "MEAN_MOTION": 14.67906168, "ECCENTRICITY": 0.00395999, "INCLINATION": 74.0464, "RA_OF_ASC_NODE": 286.3095, "ARG_OF_PERICENTER": 34.3497, "MEAN_ANOMALY": 326.0221, "EPHEMERIS_TYPE": 0, "CLASSIFICATION_TYPE": "U", "NORAD_CAT_ID": 35061, "ELEMENT_SET_NO": 999, "REV_AT_EPOCH": 88722, "BSTAR": 0.00074768176, "MEAN_MOTION_DOT": 4.298e-05, "MEAN_MOTION_DDOT": 0}, "tle": {"line1": "1 35061U 93036AHQ 25356.79224654  .00004298  00000+0  74768-3 0  9993", "line2": "2 35061  74.0464 286.3095 0039599  34.3497 326.0221 14.67906168887221"}}, "geometry": {"type": "Point", "coordinates": [-58.83196602494843, 44.26778925192855]}}, {"type": "Feature", "properties": {"norad_id": 35062, "name": "COSMOS 2251 DEB", "group": "cosmos-2251-debris", "lat": 9.839152048786774, "lon": -108.85238379527277, "alt_km": 829.5996539582602, "timestamp": "2025-12-23T11:34:48.556356+00:00", "meta": {"OBJECT_NAME": "COSMOS 2251 DEB", "OBJECT_ID": "1993-036AHR", "EPOCH": "2025-12-20T22:03:28.302048", "MEAN_MOTION": 14.22993492, "ECCENTRICITY": 0.0126453, "INCLINATION": 74.0793, "RA_OF_ASC_NODE": 78.5797, "ARG_OF_PERICENTER": 75.845, "MEAN_ANOMALY": 285.6708, "EPHEMERIS_TYPE": 0, "CLASSIFICATION_TYPE": "U", "NORAD_CAT_ID": 35062, "ELEMENT_SET_NO": 999, "REV_AT_EPOCH": 85615, "BSTAR": 0.0011493, "MEAN_MOTION_DOT": 2.786e-05, "MEAN_MOTION_DDOT": 0}, "tle": {"line1": "1 35062U 93036AHR 25354.91907757  .00002786  00000+0  11493-2 0  9993", "line2": "2 35062  74.0793  78.5797 0126453  75.8450 285.6708 14.22993492856157"}}, "geometry": {"type": "Point", "coordinates": [-108.85238379527277, 9.839152048786774]}}, {"type": "Feature", "properties": {"norad_id": 35065, "name": "COSMOS 2251 DEB", "group": "cosmos-2251-debris", "lat": 14.511738536568254, "lon": 178.53810356427496, "alt_km": 737.0164410034413, "timestamp": "2025-12-23T11:34:48.556365+00:00", "meta": {"OBJECT_NAME": "COSMOS 2251 DEB", "OBJECT_ID": "1993-036AHU", "EPOCH": "2025-12-19T06:12:25.656192", "MEAN_MOTION": 14.4574331, "ECCENTRICITY": 0.0020018, "INCLINATION": 74.0185, "RA_OF_ASC_NODE": 182.1668, "ARG_OF_PERICENTER": 306.5523, "MEAN_ANOMALY": 53.3791, "EPHEMERIS_TYPE": 0, "CLASSIFICATION_TYPE": "U", "NORAD_CAT_ID": 35065, "ELEMENT_SET_NO": 999, "REV_AT_EPOCH": 68445, "BSTAR": 0.00028971, "MEAN_MOTION_DOT": 1.002e-05, "MEAN_MOTION_DDOT": 0}, "tle": {"line1": "1 35065U 93036AHU 25353.25863028  .00001002  00000+0  28971-3 0  9994", "line2": "2 35065  74.0185 182.1668 0020018 306.5523  53.3791 14.45743310684450"}}, "geometry": {"type": "Point", "coordinates": [178.53810356427496, 14.511738536568254]}}, {"type": "Feature", "properties": {"norad_id": 35071, "name": "COSMOS 2251 DEB", "group": "cosmos-2251-debris", "lat": -49.73965836397645, "lon": 131.44802983120536, "alt_km": 568.1412744600602, "timestamp": "2025-12-23T11:34:48.556374+00:00", "meta": {"OBJECT_NAME": "COSMOS 2251 DEB", "OBJECT_ID": "1993-036AJA", "EPOCH": "2025-12-15T18:34:31.974816", "MEAN_MOTION": 15.0351885, "ECCENTRICITY": 0.00682233, "INCLINATION": 73.9308, "RA_OF_ASC_NODE": 167.1964, "ARG_OF_PERICENTER": 62.71, "MEAN_ANOMALY": 298.1014, "EPHEMERIS_TYPE": 0, "CLASSIFICATION_TYPE": "U", "NORAD_CAT_ID": 35071, "ELEMENT_SET_NO": 999, "REV_AT_EPOCH": 67582, "BSTAR": 0.00048026378, "MEAN_MOTION_DOT": 6.858e-05, "MEAN_MOTION_DDOT": 0}, "tle": {"line1": "1 35071U 93036AJA 25349.77398119  .00006858  00000+0  48026-3 0  9994", "line2": "2 35071  73.9308 167.1964 0068223  62.7100 298.1014 15.03518850675828"}}, "geometry": {"type": "Point", "coordinates": [131.44802983120536, -49.73965836397645]}}, {"type": "Feature", "properties": {"norad_id": 35073, "name": "COSMOS 2251 DEB", "group": "cosmos-2251-debris", "lat": -40.9141342945924, "lon": -65.73647127715365, "alt_km": 569.3145686479775, "timestamp": "2025-12-23T11:34:48.556383+00:00", "meta": {"OBJECT_NAME": "COSMOS 2251 DEB", "OBJECT_ID": "1993-036AJC", "EPOCH": "2025-12-23T03:46:29.186400", "MEAN_MOTION": 15.01345149, "ECCENTRICITY": 0.0011248, "INCLINATION": 74.0021, "RA_OF_ASC_NODE": 309.3244, "ARG_OF_PERICENTER": 51.087, "MEAN_ANOMALY": 309.1319, "EPHEMERIS_TYPE": 0, "CLASSIFICATION_TYPE": "U", "NORAD_CAT_ID": 35073, "ELEMENT_SET_NO": 999, "REV_AT_EPOCH": 67635, "BSTAR": 0.0033351, "MEAN_MOTION_DOT": 0.00043256, "MEAN_MOTION_DDOT": 0}, "tle": {"line1": "1 35073U 93036AJC 25357.15728225  .00043256  00000+0  33351-2 0  9999", "line2": "2 35073  74.0021 309.3244 0011248  51.0870 309.1319 15.01345149676352"}}, "geometry": {"type": "Point", "coordinates": [-65.73647127715365, -40.9141342945924]}}, {"type": "Feature", "properties": {"norad_id": 35284, "name": "COSMOS 2251 DEB", "group": "cosmos-2251-debris", "lat": 35.6214854680842, "lon": 52.819181057816586, "alt_km": 773.4700336013702, "timestamp": "2025-12-23T11:34:48.556392+00:00", "meta": {"OBJECT_NAME": "COSMOS 2251 DEB", "OBJECT_ID": "1993-036AJN", "EPOCH": "2025-12-22T23:19:24.555072", "MEAN_MOTION": 14.38328459, "ECCENTRICITY": 0.0017149, "INCLINATION": 74.0486, "RA_OF_ASC_NODE": 245.5844, "ARG_OF_PERICENTER": 320.5278, "MEAN_ANOMALY": 58.8111, "EPHEMERIS_TYPE": 0, "CLASSIFICATION_TYPE": "U", "NORAD_CAT_ID": 35284, "ELEMENT_SET_NO": 999, "REV_AT_EPOCH": 65673, "BSTAR": 0.00014925, "MEAN_MOTION_DOT": 4.29e-06, "MEAN_MOTION_DDOT": 0}, "tle": {"line1": "1 35284U 93036AJN 25356.97181198  .00000429  00000+0  14925-3 0  9996", "line2": "2 35284  74.0486 245.5844 0017149 320.5278  58.8111 14.38328459656732"}}, "geometry": {"type": "Point", "coordinates": [52.819181057816586, 35.6214854680842]}}, {"type": "Feature", "properties": {"norad_id": 35287, "name": "COSMOS 2251 DEB", "group": "cosmos-2251-debris", "lat": -59.02680100819511, "lon": 104.8918476609811, "alt_km": 781.1152675088324, "timestamp": "2025-12-23T11:34:48.556401+00:00", "meta": {"OBJECT_NAME": "COSMOS 2251 DEB", "OBJECT_ID": "1993-036AJR", "EPOCH": "2025-12-22T11:53:54.676608", "MEAN_MOTION": 14.36384319, "ECCENTRICITY": 0.00179964, "INCLINATION": 74.0302, "RA_OF_ASC_NODE": 258.2089, "ARG_OF_PERICENTER": 352.7565, "MEAN_ANOMALY": 190.154, "EPHEMERIS_TYPE": 0, "CLASSIFICATION_TYPE": "U", "NORAD_CAT_ID": 35287, "ELEMENT_SET_NO": 999, "REV_AT_EPOCH": 87032, "BSTAR": 0.00012587961, "MEAN_MOTION_DOT": 3.43e-06, "MEAN_MOTION_DDOT": 0}, "tle": {"line1": "1 35287U 93036AJR 25356.49577172  .00000343  00000+0  12588-3 0  9995", "line2": "2 35287  74.0302 258.2089 0017996 352.7565 190.1540 14.36384319870324"}}, "geometry": {"type": "Point", "coordinates": [104.8918476609811, -59.02680100819511]}}, {"type": "Feature", "properties": {"norad_id": 35288, "name": "COSMOS 2251 DEB", "group": "cosmos-2251-debris", "lat": 70.68464661340658, "lon": 49.605409680437326, "alt_km": 691.2321537282614, "timestamp": "2025-12-23T11:34:48.556410+00:00", "meta": {"OBJECT_NAME": "COSMOS 2251 DEB", "OBJECT_ID": "1993-036AJS", "EPOCH": "2025-12-21T10:04:09.683328", "MEAN_MOTION": 14.65541798, "ECCENTRICITY": 0.00391307, "INCLINATION": 73.9498, "RA_OF_ASC_NODE": 358.3745, "ARG_OF_PERICENTER": 230.729, "MEAN_ANOMALY": 129.0405, "EPHEMERIS_TYPE": 0, "CLASSIFICATION_TYPE": "U", "NORAD_CAT_ID": 35288, "ELEMENT_SET_NO": 999, "REV_AT_EPOCH": 88005, "BSTAR": 0.00079112613, "MEAN_MOTION_DOT": 4.31e-05, "MEAN_MOTION_DDOT": 0}, "tle": {"line1": "1 35288U 93036AJS 25355.41955652  .00004310  00000+0  79113-3 0  9995", "line2": "2 35288  73.9498 358.3745 0039130 230.7290 129.0405 14.65541798880054"}}, "geometry": {"type": "Point", "coordinates": [49.605409680437326, 70.68464661340658]}}]}